STARLINK-30256          
1 57522U 23115B   26068.20523495 -.00005369  00000+0 -19069-3 0  9997
2 57522  43.0014   4.6316 0001742 264.2228  95.8424 15.26726159142277
2025-313BE              
1 67482U 25313BE  26068.69721505  .00077178  00000+0  26504-2 0  9996
2 67482  97.3989 145.3568 0007208 335.3714  24.7181 15.29801687  7972
